{"type": "FeatureCollection", "features": [ {"type": "Feature", "properties": {"norad_id": 38779, "name": "GSAT-10 (GAGAN/PRN 128)", "group": "gnss", "lat": -0.00024124883308968153, "lon": 123.64567016202972, "alt_km": 35776.49208331113, "timestamp": "2025-12-08T21:31:04.910404+00:00", "meta": {"OBJECT_NAME": "GSAT-10 (GAGAN/PRN 128)", "OBJECT_ID": "2012-051B", "EPOCH": "2025-12-08T13:59:57.473376", "MEAN_MOTION": 1.0027332, "ECCENTRICITY": 0.00021817, "INCLINATION": 0.018, "RA_OF_ASC_NODE": 264.5114, "ARG_OF_PERICENTER": 222.6941, "MEAN_ANOMALY": 243.3543, "EPHEMERIS_TYPE": 0, "CLASSIFICATION_TYPE": "U", "NORAD_CAT_ID": 38779, "ELEMENT_SET_NO": 999, "REV_AT_EPOCH": 4818, "BSTAR": 0, "MEAN_MOTION_DOT": -1.63e-06, "MEAN_MOTION_DDOT": 0}, "tle": {"line1": "1 38779U 12051B   25342.58330409 -.00000163  00000+0  00000+0 0  9990", "line2": "2 38779   0.0180 264.5114 0002181 222.6941 243.3543  1.00273320 48189"}}, "geometry": {"type": "Point", "coordinates": [123.64567016202972, -0.00024124883308968153]}}, {"type": "Feature", "properties": {"norad_id": 38833, "name": "GPS BIIF-3  (PRN 24)", "group": "gnss", "lat": 19.948608860549843, "lon": 166.94721996556848, "alt_km": 19813.26272970331, "timestamp": "2025-12-08T21:31:04.910416+00:00", "meta": {"OBJECT_NAME": "GPS BIIF-3  (PRN 24)", "OBJECT_ID": "2012-053A", "EPOCH": "2025-12-07T20:46:13.738656", "MEAN_MOTION": 2.00564906, "ECCENTRICITY": 0.01756617, "INCLINATION": 53.5567, "RA_OF_ASC_NODE": 151.4383, "ARG_OF_PERICENTER": 63.924, "MEAN_ANOMALY": 297.8703, "EPHEMERIS_TYPE": 0, "CLASSIFICATION_TYPE": "U", "NORAD_CAT_ID": 38833, "ELEMENT_SET_NO": 999, "REV_AT_EPOCH": 9560, "BSTAR": 0, "MEAN_MOTION_DOT": 5.3e-07, "MEAN_MOTION_DDOT": 0}, "tle": {"line1": "1 38833U 12053A   25341.86543679  .00000053  00000+0  00000+0 0  9995", "line2": "2 38833  53.5567 151.4383 0175661  63.9240 297.8703  2.00564906 95601"}}, "geometry": {"type": "Point", "coordinates": [166.94721996556848, 19.948608860549843]}}, {"type": "Feature", "properties": {"norad_id": 38857, "name": "GSAT0103 (GALILEO-FM3)", "group": "gnss", "lat": 30.462791896696665, "lon": 130.41725727160969, "alt_km": 23223.26553256369, "timestamp": "2025-12-08T21:31:04.910427+00:00", "meta": {"OBJECT_NAME": "GSAT0103 (GALILEO-FM3)", "OBJECT_ID": "2012-055A", "EPOCH": "2025-12-06T11:43:28.953984", "MEAN_MOTION": 1.7047325, "ECCENTRICITY": 0.00024686, "INCLINATION": 55.6879, "RA_OF_ASC_NODE": 106.8382, "ARG_OF_PERICENTER": 267.747, "MEAN_ANOMALY": 92.1776, "EPHEMERIS_TYPE": 0, "CLASSIFICATION_TYPE": "U", "NORAD_CAT_ID": 38857, "ELEMENT_SET_NO": 999, "REV_AT_EPOCH": 8172, "BSTAR": 0, "MEAN_MOTION_DOT": 7e-08, "MEAN_MOTION_DDOT": 0}, "tle": {"line1": "1 38857U 12055A   25340.48852956  .00000007  00000+0  00000+0 0  9990", "line2": "2 38857  55.6879 106.8382 0002468 267.7470  92.1776  1.70473250 81723"}}, "geometry": {"type": "Point", "coordinates": [130.41725727160969, 30.462791896696665]}}, {"type": "Feature", "properties": {"norad_id": 38953, "name": "BEIDOU-2 G6 (C02)", "group": "gnss", "lat": 2.9981929590213916, "lon": 124.70989509515718, "alt_km": 35802.082850936575, "timestamp": "2025-12-08T21:31:04.910455+00:00", "meta": {"OBJECT_NAME": "BEIDOU-2 G6 (C02)", "OBJECT_ID": "2012-059A", "EPOCH": "2025-12-08T08:51:56.972160", "MEAN_MOTION": 1.00270135, "ECCENTRICITY": 0.00076794, "INCLINATION": 3.938, "RA_OF_ASC_NODE": 75.5466, "ARG_OF_PERICENTER": 289.5213, "MEAN_ANOMALY": 289.3333, "EPHEMERIS_TYPE": 0, "CLASSIFICATION_TYPE": "U", "NORAD_CAT_ID": 38953, "ELEMENT_SET_NO": 999, "REV_AT_EPOCH": 4799, "BSTAR": 0, "MEAN_MOTION_DOT": -1.74e-06, "MEAN_MOTION_DDOT": 0}, "tle": {"line1": "1 38953U 12059A   25342.36940940 -.00000174  00000+0  00000+0 0  9997", "line2": "2 38953   3.9380  75.5466 0007679 289.5213 289.3333  1.00270135 47994"}}, "geometry": {"type": "Point", "coordinates": [124.70989509515718, 2.9981929590213916]}}, {"type": "Feature", "properties": {"norad_id": 38977, "name": "LUCH 5B (SDCM/PRN 125)", "group": "gnss", "lat": -4.605590677800679, "lon": 24.738359014792582, "alt_km": 35810.4703412799, "timestamp": "2025-12-08T21:31:04.910468+00:00", "meta": {"OBJECT_NAME": "LUCH 5B (SDCM/PRN 125)", "OBJECT_ID": "2012-061A", "EPOCH": "2025-12-08T10:06:12.360096", "MEAN_MOTION": 1.00272234, "ECCENTRICITY": 0.00072728, "INCLINATION": 10.0716, "RA_OF_ASC_NODE": 51.747, "ARG_OF_PERICENTER": 191.5954, "MEAN_ANOMALY": 329.292, "EPHEMERIS_TYPE": 0, "CLASSIFICATION_TYPE": "U", "NORAD_CAT_ID": 38977, "ELEMENT_SET_NO": 999, "REV_AT_EPOCH": 4769, "BSTAR": 0, "MEAN_MOTION_DOT": -1.39e-06, "MEAN_MOTION_DDOT": 0}, "tle": {"line1": "1 38977U 12061A   25342.42097639 -.00000139  00000+0  00000+0 0  9992", "line2": "2 38977  10.0716  51.7470 0007272 191.5954 329.2920  1.00272234 47691"}}, "geometry": {"type": "Point", "coordinates": [24.738359014792582, -4.605590677800679]}}, {"type": "Feature", "properties": {"norad_id": 39155, "name": "COSMOS 2485 (747)", "group": "gnss", "lat": 25.099786827709696, "lon": 92.4265493323177, "alt_km": 19185.613582618516, "timestamp": "2025-12-08T21:31:04.910484+00:00", "meta": {"OBJECT_NAME": "COSMOS 2485 (747)", "OBJECT_ID": "2013-019A", "EPOCH": "2025-12-08T09:22:54.881472", "MEAN_MOTION": 2.13102915, "ECCENTRICITY": 0.00247085, "INCLINATION": 65.3111, "RA_OF_ASC_NODE": 80.0136, "ARG_OF_PERICENTER": 229.6157, "MEAN_ANOMALY": 130.1832, "EPHEMERIS_TYPE": 0, "CLASSIFICATION_TYPE": "U", "NORAD_CAT_ID": 39155, "ELEMENT_SET_NO": 999, "REV_AT_EPOCH": 9821, "BSTAR": 0, "MEAN_MOTION_DOT": -1e-07, "MEAN_MOTION_DDOT": 0}, "tle": {"line1": "1 39155U 13019A   25342.39091298 -.00000010  00000+0  00000+0 0  9994", "line2": "2 39155  65.3111  80.0136 0024708 229.6157 130.1832  2.13102915 98215"}}, "geometry": {"type": "Point", "coordinates": [92.4265493323177, 25.099786827709696]}}, {"type": "Feature", "properties": {"norad_id": 39166, "name": "GPS BIIF-4  (PRN 27)", "group": "gnss", "lat": 41.61554992762792, "lon": 57.69233513723784, "alt_km": 20089.820631766244, "timestamp": "2025-12-08T21:31:04.910495+00:00", "meta": {"OBJECT_NAME": "GPS BIIF-4  (PRN 27)", "OBJECT_ID": "2013-023A", "EPOCH": "2025-12-08T05:28:17.877216", "MEAN_MOTION": 2.00565078, "ECCENTRICITY": 0.01376231, "INCLINATION": 54.656, "RA_OF_ASC_NODE": 276.7517, "ARG_OF_PERICENTER": 48.5653, "MEAN_ANOMALY": 312.6225, "EPHEMERIS_TYPE": 0, "CLASSIFICATION_TYPE": "U", "NORAD_CAT_ID": 39166, "ELEMENT_SET_NO": 999, "REV_AT_EPOCH": 9205, "BSTAR": 0, "MEAN_MOTION_DOT": -4.1e-07, "MEAN_MOTION_DDOT": 0}, "tle": {"line1": "1 39166U 13023A   25342.22798469 -.00000041  00000+0  00000+0 0  9991", "line2": "2 39166  54.6560 276.7517 0137623  48.5653 312.6225  2.00565078 92051"}}, "geometry": {"type": "Point", "coordinates": [57.69233513723784, 41.61554992762792]}}, {"type": "Feature", "properties": {"norad_id": 39199, "name": "IRNSS-1A", "group": "gnss", "lat": 16.423648665349283, "lon": 91.1873085093246, "alt_km": 35865.626559446966, "timestamp": "2025-12-08T21:31:04.910507+00:00", "meta": {"OBJECT_NAME": "IRNSS-1A", "OBJECT_ID": "2013-034A", "EPOCH": "2025-12-02T19:49:26.431104", "MEAN_MOTION": 1.00279053, "ECCENTRICITY": 0.00216608, "INCLINATION": 35.2852, "RA_OF_ASC_NODE": 66.6964, "ARG_OF_PERICENTER": 185.4059, "MEAN_ANOMALY": 172.3398, "EPHEMERIS_TYPE": 0, "CLASSIFICATION_TYPE": "U", "NORAD_CAT_ID": 39199, "ELEMENT_SET_NO": 999, "REV_AT_EPOCH": 4539, "BSTAR": 0, "MEAN_MOTION_DOT": 6.5e-07, "MEAN_MOTION_DDOT": 0}, "tle": {"line1": "1 39199U 13034A   25336.82600036  .00000065  00000+0  00000+0 0  9995", "line2": "2 39199  35.2852  66.6964 0021660 185.4059 172.3398  1.00279053 45393"}}, "geometry": {"type": "Point", "coordinates": [91.1873085093246, 16.423648665349283]}}, {"type": "Feature", "properties": {"norad_id": 39533, "name": "GPS BIIF-5  (PRN 30)", "group": "gnss", "lat": 40.972222167490145, "lon": -62.7311443497441, "alt_km": 20214.878561627847, "timestamp": "2025-12-08T21:31:04.910522+00:00", "meta": {"OBJECT_NAME": "GPS BIIF-5  (PRN 30)", "OBJECT_ID": "2014-008A", "EPOCH": "2025-12-07T17:22:04.649088", "MEAN_MOTION": 2.00574086, "ECCENTRICITY": 0.007908, "INCLINATION": 53.6303, "RA_OF_ASC_NODE": 157.1293, "ARG_OF_PERICENTER": 226.426, "MEAN_ANOMALY": 132.9228, "EPHEMERIS_TYPE": 0, "CLASSIFICATION_TYPE": "U", "NORAD_CAT_ID": 39533, "ELEMENT_SET_NO": 999, "REV_AT_EPOCH": 8584, "BSTAR": 0, "MEAN_MOTION_DOT": 5.5e-07, "MEAN_MOTION_DDOT": 0}, "tle": {"line1": "1 39533U 14008A   25341.72366492  .00000055  00000+0  00000+0 0  9998", "line2": "2 39533  53.6303 157.1293 0079080 226.4260 132.9228  2.00574086 85843"}}, "geometry": {"type": "Point", "coordinates": [-62.7311443497441, 40.972222167490145]}}, {"type": "Feature", "properties": {"norad_id": 39617, "name": "ASTRA 5B (EGNOS/PRN 123)", "group": "gnss", "lat": 0.05060993257250005, "lon": 64.16570947993657, "alt_km": 35804.874898123104, "timestamp": "2025-12-08T21:31:04.910541+00:00", "meta": {"OBJECT_NAME": "ASTRA 5B (EGNOS/PRN 123)", "OBJECT_ID": "2014-011B", "EPOCH": "2025-12-08T13:42:59.099040", "MEAN_MOTION": 1.00269983, "ECCENTRICITY": 0.00045421, "INCLINATION": 0.0541, "RA_OF_ASC_NODE": 28.1648, "ARG_OF_PERICENTER": 233.6564, "MEAN_ANOMALY": 44.9902, "EPHEMERIS_TYPE": 0, "CLASSIFICATION_TYPE": "U", "NORAD_CAT_ID": 39617, "ELEMENT_SET_NO": 999, "REV_AT_EPOCH": 4275, "BSTAR": 0, "MEAN_MOTION_DOT": 1.39e-06, "MEAN_MOTION_DDOT": 0}, "tle": {"line1": "1 39617U 14011B   25342.57151735  .00000139  00000+0  00000+0 0  9994", "line2": "2 39617   0.0541  28.1648 0004542 233.6564  44.9902  1.00269983 42755"}}, "geometry": {"type": "Point", "coordinates": [64.16570947993657, 0.05060993257250005]}}]}